[{"OBJECT_NAME":"STARLINK-32220","OBJECT_ID":"2024-138R","EPOCH":"2026-03-09T22:29:57.301728","MEAN_MOTION":15.30176624,"ECCENTRICITY":0.00012946,"INCLINATION":53.1608,"RA_OF_ASC_NODE":308.5865,"ARG_OF_PERICENTER":78.0199,"MEAN_ANOMALY":282.0947,"EPHEMERIS_TYPE":0,"CLASSIFICATION_TYPE":"U","NORAD_CAT_ID":60370,"ELEMENT_SET_NO":999,"REV_AT_EPOCH":9066,"BSTAR":0.00014921517,"MEAN_MOTION_DOT":4.059e-5,"MEAN_MOTION_DDOT":0},{"OBJECT_NAME":"TOMORROW-S1","OBJECT_ID":"2024-149M","EPOCH":"2026-03-09T17:23:34.533600","MEAN_MOTION":15.31198363,"ECCENTRICITY":0.00018188,"INCLINATION":97.3791,"RA_OF_ASC_NODE":149.6044,"ARG_OF_PERICENTER":207.204,"MEAN_ANOMALY":152.9106,"EPHEMERIS_TYPE":0,"CLASSIFICATION_TYPE":"U","NORAD_CAT_ID":60479,"ELEMENT_SET_NO":999,"REV_AT_EPOCH":8686,"BSTAR":0.0002885603,"MEAN_MOTION_DOT":8.62e-5,"MEAN_MOTION_DDOT":0}]
